[{"OBJECT_NAME":"STARLINK-36520","OBJECT_ID":"2026-008X","EPOCH":"2026-03-09T09:33:21.178656","MEAN_MOTION":15.27590215,"ECCENTRICITY":0.0001317,"INCLINATION":42.9973,"RA_OF_ASC_NODE":207.2097,"ARG_OF_PERICENTER":273.7761,"MEAN_ANOMALY":86.294,"EPHEMERIS_TYPE":0,"CLASSIFICATION_TYPE":"U","NORAD_CAT_ID":67466,"ELEMENT_SET_NO":999,"REV_AT_EPOCH":952,"BSTAR":0.0010621209,"MEAN_MOTION_DOT":0.0002909,"MEAN_MOTION_DDOT":0},{"OBJECT_NAME":"COSMOS 2251 DEB","OBJECT_ID":"1993-036BN","EPOCH":"2026-03-09T17:54:27.582912","MEAN_MOTION":15.31852549,"ECCENTRICITY":0.0043021,"INCLINATION":74.0291,"RA_OF_ASC_NODE":318.0178,"ARG_OF_PERICENTER":323.0874,"MEAN_ANOMALY":36.7369,"EPHEMERIS_TYPE":0,"CLASSIFICATION_TYPE":"U","NORAD_CAT_ID":33821,"ELEMENT_SET_NO":999,"REV_AT_EPOCH":76330,"BSTAR":0.0011195846,"MEAN_MOTION_DOT":0.00035571,"MEAN_MOTION_DDOT":0}]
